{"type": "FeatureCollection", "features": [{"type": "Feature", "properties": {"norad_id": 50032, "name": "COSMOS 1408 DEB", "group": "cosmos-1408-debris", "lat": -34.656455303298586, "lon": 43.20592203701234, "alt_km": 445.2437653175766, "timestamp": "2025-12-22T14:45:57.672985+00:00", "meta": {"OBJECT_NAME": "COSMOS 1408 DEB", "OBJECT_ID": "1982-092RU", "EPOCH": "2025-12-22T04:02:31.933824", "MEAN_MOTION": 15.45783536, "ECCENTRICITY": 0.00162028, "INCLINATION": 82.5632, "RA_OF_ASC_NODE": 48.8449, "ARG_OF_PERICENTER": 173.5124, "MEAN_ANOMALY": 186.6338, "EPHEMERIS_TYPE": 0, "CLASSIFICATION_TYPE": "U", "NORAD_CAT_ID": 50032, "ELEMENT_SET_NO": 999, "REV_AT_EPOCH": 22749, "BSTAR": 0.00010470664, "MEAN_MOTION_DOT": 5.134e-05, "MEAN_MOTION_DDOT": 0}, "tle": {"line1": "1 50032U 82092RU  25356.16842516  .00005134  00000+0  10471-3 0  9993", "line2": "2 50032  82.5632  48.8449 0016202 173.5124 186.6338 15.45783536227495"}}, "geometry": {"type": "Point", "coordinates": [43.20592203701234, -34.656455303298586]}}, {"type": "Feature", "properties": {"norad_id": 50058, "name": "COSMOS 1408 DEB", "group": "cosmos-1408-debris", "lat": 69.63469908535647, "lon": -141.4578662108761, "alt_km": 359.59381525676145, "timestamp": "2025-12-22T14:45:57.673006+00:00", "meta": {"OBJECT_NAME": "COSMOS 1408 DEB", "OBJECT_ID": "1982-092SW", "EPOCH": "2025-12-22T05:05:37.437504", "MEAN_MOTION": 15.64648266, "ECCENTRICITY": 0.00160261, "INCLINATION": 82.6121, "RA_OF_ASC_NODE": 59.4243, "ARG_OF_PERICENTER": 66.9716, "MEAN_ANOMALY": 293.3232, "EPHEMERIS_TYPE": 0, "CLASSIFICATION_TYPE": "U", "NORAD_CAT_ID": 50058, "ELEMENT_SET_NO": 999, "REV_AT_EPOCH": 22952, "BSTAR": 0.00035457608, "MEAN_MOTION_DOT": 0.00034625, "MEAN_MOTION_DDOT": 0}, "tle": {"line1": "1 50058U 82092SW  25356.21223886  .00034625  00000+0  35458-3 0  9999", "line2": "2 50058  82.6121  59.4243 0016026  66.9716 293.3232 15.64648266229529"}}, "geometry": {"type": "Point", "coordinates": [-141.4578662108761, 69.63469908535647]}}, {"type": "Feature", "properties": {"norad_id": 50404, "name": "COSMOS 1408 DEB", "group": "cosmos-1408-debris", "lat": -70.03493457618434, "lon": 47.070103496204624, "alt_km": 518.5275185835999, "timestamp": "2025-12-22T14:45:57.673019+00:00", "meta": {"OBJECT_NAME": "COSMOS 1408 DEB", "OBJECT_ID": "1982-092ADS", "EPOCH": "2025-12-21T15:28:45.909120", "MEAN_MOTION": 15.15078556, "ECCENTRICITY": 0.0168442, "INCLINATION": 82.2035, "RA_OF_ASC_NODE": 205.9075, "ARG_OF_PERICENTER": 168.3631, "MEAN_ANOMALY": 192.1574, "EPHEMERIS_TYPE": 0, "CLASSIFICATION_TYPE": "U", "NORAD_CAT_ID": 50404, "ELEMENT_SET_NO": 999, "REV_AT_EPOCH": 21328, "BSTAR": 0.0028703, "MEAN_MOTION_DOT": 0.00077658, "MEAN_MOTION_DDOT": 0}, "tle": {"line1": "1 50404U 82092ADS 25355.64497580  .00077658  00000+0  28703-2 0  9991", "line2": "2 50404  82.2035 205.9075 0168442 168.3631 192.1574 15.15078556213284"}}, "geometry": {"type": "Point", "coordinates": [47.070103496204624, -70.03493457618434]}}, {"type": "Feature", "properties": {"norad_id": 50621, "name": "COSMOS 1408 DEB", "group": "cosmos-1408-debris", "lat": -39.61931089176681, "lon": -109.9005907278562, "alt_km": 406.907436374584, "timestamp": "2025-12-22T14:45:57.673031+00:00", "meta": {"OBJECT_NAME": "COSMOS 1408 DEB", "OBJECT_ID": "1982-092ALR", "EPOCH": "2025-12-22T04:34:23.413728", "MEAN_MOTION": 15.57122494, "ECCENTRICITY": 0.00290745, "INCLINATION": 82.5697, "RA_OF_ASC_NODE": 64.3395, "ARG_OF_PERICENTER": 118.4206, "MEAN_ANOMALY": 241.9985, "EPHEMERIS_TYPE": 0, "CLASSIFICATION_TYPE": "U", "NORAD_CAT_ID": 50621, "ELEMENT_SET_NO": 999, "REV_AT_EPOCH": 22397, "BSTAR": 0.0003920223, "MEAN_MOTION_DOT": 0.00029066, "MEAN_MOTION_DDOT": 0}, "tle": {"line1": "1 50621U 82092ALR 25356.19054877  .00029066  00000+0  39202-3 0  9998", "line2": "2 50621  82.5697  64.3395 0029074 118.4206 241.9985 15.57122494223978"}}, "geometry": {"type": "Point", "coordinates": [-109.9005907278562, -39.61931089176681]}}]}